OBJECT_NAME,OBJECT_ID,EPOCH,MEAN_MOTION,ECCENTRICITY,INCLINATION,RA_OF_ASC_NODE,ARG_OF_PERICENTER,MEAN_ANOMALY,EPHEMERIS_TYPE,CLASSIFICATION_TYPE,NORAD_CAT_ID,ELEMENT_SET_NO,REV_AT_EPOCH,BSTAR,MEAN_MOTION_DOT,MEAN_MOTION_DDOT
GEOSCAN 3 (RS92S3),2025-155T,2026-06-13T22:25:15.263616,15.35298145,.00063032,97.4530,134.7734,170.7002,189.4359,0,U,64893,999,8035,.54417235E-3,.18605E-3,0
INNOSAT 3 (RS92S0),2025-155U,2026-06-13T22:36:25.489152,15.43619993,.00059715,97.4479,136.3605,159.3937,200.7553,0,U,64894,999,8046,.8127994E-3,.3663E-3,0
KNACKSAT-2,1998-067XZ,2026-06-13T16:46:10.211520,15.59677165,.00096113,51.6303,312.0209,199.6131,160.4494,0,U,67683,999,1973,.57858406E-3,.46958E-3,0
