GEOSCAN 3 (RS92S3)      
1 64893U 25155T   26164.93420444  .00018605  00000+0  54417-3 0  9990
2 64893  97.4530 134.7734 0006303 170.7002 189.4359 15.35298145 80356
INNOSAT 3 (RS92S0)      
1 64894U 25155U   26164.94196168  .00036630  00000+0  81280-3 0  9991
2 64894  97.4479 136.3605 0005971 159.3937 200.7553 15.43619993 80466
KNACKSAT-2              
1 67683U 98067XZ  26164.69872930  .00046958  00000+0  57858-3 0  9990
2 67683  51.6303 312.0209 0009611 199.6131 160.4494 15.59677165 19734
